OBJECT_NAME,OBJECT_ID,EPOCH,MEAN_MOTION,ECCENTRICITY,INCLINATION,RA_OF_ASC_NODE,ARG_OF_PERICENTER,MEAN_ANOMALY,EPHEMERIS_TYPE,CLASSIFICATION_TYPE,NORAD_CAT_ID,ELEMENT_SET_NO,REV_AT_EPOCH,BSTAR,MEAN_MOTION_DOT,MEAN_MOTION_DDOT
IRIDIUM 113,2017-039A,2026-05-10T16:55:03.156096,14.34217757,.0002204,86.3974,337.8535,92.7793,267.3655,0,U,42803,999,46581,.36716E-4,.123E-5,0
NORSAT 2,2017-042D,2026-05-10T17:43:20.529120,15.21168104,.0009955,97.4030,304.8004,175.5449,184.5878,0,U,42828,999,48204,.31199E-3,.6893E-4,0
TECHNOSAT,2017-042E,2026-05-10T16:18:57.981600,15.04723318,.0016781,97.4240,289.7817,218.0197,141.9847,0,U,42829,999,48106,.1082E-3,.1469E-4,0
FLYING LAPTOP,2017-042G,2026-05-10T20:29:38.421888,15.00900207,.0017668,97.4525,287.8682,250.1728,109.7592,0,U,42831,999,48085,.22748E-3,.2847E-4,0
WNISAT 1R,2017-042L,2026-05-10T17:02:26.342304,15.01587359,.0010576,97.4789,288.1844,293.8014,66.2101,0,U,42835,999,48088,.15285E-3,.1925E-4,0
LEMUR-2-GREENBERG,2017-042N,2026-05-10T18:14:04.786368,15.30159681,.0010197,97.3816,311.5959,133.8297,226.3788,0,U,42837,999,48266,.3646E-3,.10584E-3,0
LEMUR-2-FURIAUS,2017-042R,2026-05-10T11:08:42.135648,15.29001468,.0007575,97.3771,309.3448,188.1052,172.0067,0,U,42840,999,48244,.36337E-3,.1017E-3,0
CORVUS BC2,2017-042X,2026-05-10T11:01:24.433248,15.06054249,.0011943,97.4038,293.2912,237.6832,122.3239,0,U,42846,999,48138,.1825E-3,.2608E-4,0
CORVUS BC1,2017-042Y,2026-05-10T09:24:09.232128,15.06226152,.0011163,97.4071,294.0156,211.5973,148.4586,0,U,42847,999,48140,.18298E-3,.2627E-4,0
VRSS-2,2017-060A,2026-05-10T19:53:06.980928,14.81132279,.0015927,97.6545,170.2337,218.1963,141.8123,0,U,42954,999,46292,.34221E-4,.216E-5,0
MOHAMMED VI-A,2017-070A,2026-05-10T21:14:37.162176,14.77088124,.0001337,97.9561,203.7264,104.5952,255.5406,0,U,43005,999,45847,.29792E-4,.16E-5,0
FENGYUN 3D,2017-072A,2026-05-10T20:47:09.578112,14.19730250,.00021,99.0111,104.6192,125.7267,234.4104,0,U,43010,999,43969,-.13542E-3,-.333E-5,0
NOAA 20 (JPSS-1),2017-073A,2026-05-10T18:49:43.068000,14.19550625,.0001805,98.7757,70.5828,53.1790,306.9552,0,U,43013,999,43916,.41312E-4,.43E-6,0
MAKERSAT 0,2017-073D,2026-05-10T14:32:41.381664,15.30496953,.0112116,97.4681,12.8688,47.4854,313.5789,0,U,43016,999,46071,.47262E-3,.16865E-3,0
RADFXSAT (FOX-1B),2017-073E,2026-05-10T15:03:23.515200,15.12026891,.015421,97.4765,358.6237,98.2118,263.6635,0,U,43017,999,45971,.27209E-3,.6178E-4,0
JILIN-1 04,2017-074A,2026-05-10T20:03:57.247200,15.41502184,.0003205,97.4815,239.4908,348.8529,11.2646,0,U,43022,999,46851,.20445E-3,.8484E-4,0
JILIN-1 05,2017-074B,2026-05-10T20:43:38.591040,15.33298621,.0005298,97.4824,236.5389,17.2618,342.8803,0,U,43023,999,46828,.17063E-3,.5411E-4,0
JILIN-1 06,2017-074C,2026-05-10T19:59:27.582432,15.33275741,.0007311,97.4753,233.5589,24.7570,335.4021,0,U,43024,999,46811,.11998E-3,.3779E-4,0
IRIDIUM 116,2017-083C,2026-05-10T14:38:03.862752,14.34221141,.0002136,86.3967,337.7188,78.4293,281.7143,0,U,43072,999,43878,.52917E-4,.168E-5,0
IRIDIUM 130,2017-083D,2026-05-10T15:32:51.196128,14.34217605,.0002194,86.3970,337.9742,81.8847,278.2597,0,U,43073,999,43873,-.29974E-5,.11E-6,0
LKW-2,2017-084A,2026-05-10T20:24:25.204608,15.25842015,.000291,97.1226,172.3995,52.4979,307.6524,0,U,43080,999,46599,.12873E-3,.3226E-4,0
SUPERVIEW-1 03,2018-002A,2026-05-10T20:02:59.436960,15.38119512,.0046656,97.3125,215.7663,316.5650,43.1923,0,U,43099,999,46262,.23158E-3,.8933E-4,0
CARTOSAT-2F,2018-004A,2026-05-10T20:42:38.994912,15.19192803,.0002148,97.4234,190.8697,58.4266,301.7178,0,U,43111,999,46166,.2453E-4,.449E-5,0
LKW-3,2018-006A,2026-05-10T21:25:44.901120,15.34529125,.0004173,97.6579,290.0418,82.7750,277.3966,0,U,43146,999,46299,.31538E-3,.10471E-3,0
ASNARO-2,2018-007A,2026-05-10T18:53:28.025952,15.22421998,.000175,97.3994,138.2955,91.9425,268.2012,0,U,43152,999,46172,.25142E-3,.5743E-4,0
JILIN-1 07,2018-008E,2026-05-10T20:31:27.452640,15.34102386,.0008335,97.1801,151.7936,178.6977,181.4289,0,U,43159,999,45927,.17426E-3,.5679E-4,0
JILIN-1 08,2018-008F,2026-05-10T19:59:15.419040,15.33218450,.0005677,97.1830,151.1240,188.9651,171.1492,0,U,43160,999,45922,.13396E-3,.4225E-4,0
LEMUR-2-KADI,2018-014E,2026-05-10T18:54:09.233568,15.83821236,.0005577,97.4495,59.7975,101.6760,258.5135,0,U,43184,999,45514,.10417E-2,.235646E-2,0
S-NET D,2018-014G,2026-05-10T17:15:23.814432,15.16316859,.0009429,97.5388,35.7487,138.8194,221.3752,0,U,43186,999,45308,.15358E-3,.2911E-4,0
