IRIDIUM 113             
1 42803U 17039A   26130.70489764  .00000123  00000+0  36716-4 0  9996
2 42803  86.3974 337.8535 0002204  92.7793 267.3655 14.34217757465814
NORSAT 2                
1 42828U 17042D   26130.73843205  .00006893  00000+0  31199-3 0  9993
2 42828  97.4030 304.8004 0009955 175.5449 184.5878 15.21168104482049
TECHNOSAT               
1 42829U 17042E   26130.67983775  .00001469  00000+0  10820-3 0  9996
2 42829  97.4240 289.7817 0016781 218.0197 141.9847 15.04723318481063
FLYING LAPTOP           
1 42831U 17042G   26130.85391692  .00002847  00000+0  22748-3 0  9993
2 42831  97.4525 287.8682 0017668 250.1728 109.7592 15.00900207480858
WNISAT 1R               
1 42835U 17042L   26130.71002711  .00001925  00000+0  15285-3 0  9997
2 42835  97.4789 288.1844 0010576 293.8014  66.2101 15.01587359480887
LEMUR-2-GREENBERG       
1 42837U 17042N   26130.75977762  .00010584  00000+0  36460-3 0  9999
2 42837  97.3816 311.5959 0010197 133.8297 226.3788 15.30159681482665
LEMUR-2-FURIAUS         
1 42840U 17042R   26130.46437657  .00010170  00000+0  36337-3 0  9999
2 42840  97.3771 309.3448 0007575 188.1052 172.0067 15.29001468482445
CORVUS BC2              
1 42846U 17042X   26130.45931057  .00002608  00000+0  18250-3 0  9998
2 42846  97.4038 293.2912 0011943 237.6832 122.3239 15.06054249481386
CORVUS BC1              
1 42847U 17042Y   26130.39177352  .00002627  00000+0  18298-3 0  9995
2 42847  97.4071 294.0156 0011163 211.5973 148.4586 15.06226152481405
VRSS-2                  
1 42954U 17060A   26130.82855302  .00000216  00000+0  34221-4 0  9997
2 42954  97.6545 170.2337 0015927 218.1963 141.8123 14.81132279462920
MOHAMMED VI-A           
1 43005U 17070A   26130.88515234  .00000160  00000+0  29792-4 0  9994
2 43005  97.9561 203.7264 0001337 104.5952 255.5406 14.77088124458472
FENGYUN 3D              
1 43010U 17072A   26130.86608308 -.00000333  00000+0 -13542-3 0  9994
2 43010  99.0111 104.6192 0002100 125.7267 234.4104 14.19730250439698
NOAA 20 (JPSS-1)        
1 43013U 17073A   26130.78452625  .00000043  00000+0  41312-4 0  9991
2 43013  98.7757  70.5828 0001805  53.1790 306.9552 14.19550625439166
MAKERSAT 0              
1 43016U 17073D   26130.60603451  .00016865  00000+0  47262-3 0  9998
2 43016  97.4681  12.8688 0112116  47.4854 313.5789 15.30496953460717
RADFXSAT (FOX-1B)       
1 43017U 17073E   26130.62735550  .00006178  00000+0  27209-3 0  9992
2 43017  97.4765 358.6237 0154210  98.2118 263.6635 15.12026891459713
JILIN-1 04              
1 43022U 17074A   26130.83607925  .00008484  00000+0  20445-3 0  9993
2 43022  97.4815 239.4908 0003205 348.8529  11.2646 15.41502184468516
JILIN-1 05              
1 43023U 17074B   26130.86364110  .00005411  00000+0  17063-3 0  9992
2 43023  97.4824 236.5389 0005298  17.2618 342.8803 15.33298621468289
JILIN-1 06              
1 43024U 17074C   26130.83295813  .00003779  00000+0  11998-3 0  9999
2 43024  97.4753 233.5589 0007311  24.7570 335.4021 15.33275741468118
IRIDIUM 116             
1 43072U 17083C   26130.60976693  .00000168  00000+0  52917-4 0  9995
2 43072  86.3967 337.7188 0002136  78.4293 281.7143 14.34221141438788
IRIDIUM 130             
1 43073U 17083D   26130.64781477  .00000011  00000+0 -29974-5 0  9990
2 43073  86.3970 337.9742 0002194  81.8847 278.2597 14.34217605438737
LKW-2                   
1 43080U 17084A   26130.85029172  .00003226  00000+0  12873-3 0  9997
2 43080  97.1226 172.3995 0002910  52.4979 307.6524 15.25842015465991
SUPERVIEW-1 03          
1 43099U 18002A   26130.83541015  .00008933  00000+0  23158-3 0  9999
2 43099  97.3125 215.7663 0046656 316.5650  43.1923 15.38119512462625
CARTOSAT-2F             
1 43111U 18004A   26130.86295133  .00000449  00000+0  24530-4 0  9996
2 43111  97.4234 190.8697 0002148  58.4266 301.7178 15.19192803461666
LKW-3                   
1 43146U 18006A   26130.89288080  .00010471  00000+0  31538-3 0  9993
2 43146  97.6579 290.0418 0004173  82.7750 277.3966 15.34529125462998
ASNARO-2                
1 43152U 18007A   26130.78712993  .00005743  00000+0  25142-3 0  9994
2 43152  97.3994 138.2955 0001750  91.9425 268.2012 15.22421998461728
JILIN-1 07              
1 43159U 18008E   26130.85517885  .00005679  00000+0  17426-3 0  9997
2 43159  97.1801 151.7936 0008335 178.6977 181.4289 15.34102386459279
JILIN-1 08              
1 43160U 18008F   26130.83281735  .00004225  00000+0  13396-3 0  9997
2 43160  97.1830 151.1240 0005677 188.9651 171.1492 15.33218450459220
LEMUR-2-KADI            
1 43184U 18014E   26130.78760687  .00235646  00000+0  10417-2 0  9995
2 43184  97.4495  59.7975 0005577 101.6760 258.5135 15.83821236455144
S-NET D                 
1 43186U 18014G   26130.71902563  .00002911  00000+0  15358-3 0  9998
2 43186  97.5388  35.7487 0009429 138.8194 221.3752 15.16316859453083
